SXODC_L_00010032-32
1 68715U 25914HT  26070.40869213  .00000000  00000+0  00000-0 0  9995
2 68715  30.0000  33.1157 0000000   0.0000 250.9436 13.42494874    18
SXODC_L_00010032-33
1 68716U 24435QO  26070.40869213  .00000000  00000+0  00000-0 0  9993
2 68716  30.0000  33.1157 0000000   0.0000 258.9436 13.42494874    17
SXODC_L_00010032-34
1 68717U 25810K   26070.40869213  .00000000  00000+0  00000-0 0  9992
2 68717  30.0000  33.1157 0000000   0.0000 266.9436 13.42494874    17
SXODC_L_00010032-35
1 68718U 26055KH  26070.40869213  .00000000  00000+0  00000-0 0  9995
2 68718  30.0000  33.1157 0000000   0.0000 274.9436 13.42494874    17
SXODC_L_00010032-36
1 68719U 22021CA  26070.40869213  .00000000  00000+0  00000-0 0  9995
2 68719  30.0000  33.1157 0000000   0.0000 282.9436 13.42494874    17
SXODC_L_00010032-37
1 68720U 23649VE  26070.40869213  .00000000  00000+0  00000-0 0  9994
2 68720  30.0000  33.1157 0000000   0.0000 290.9436 13.42494874    18
SXODC_L_00010032-38
1 68721U 23840KY  26070.40869213  .00000000  00000+0  00000-0 0  9998
2 68721  30.0000  33.1157 0000000   0.0000 298.9436 13.42494874    17
SXODC_L_00010032-39
1 68722U 26695ME  26070.40869213  .00000000  00000+0  00000-0 0  9990
2 68722  30.0000  33.1157 0000000   0.0000 306.9436 13.42494874    18
SXODC_L_00010032-40
1 68723U 22386WL  26070.40869213  .00000000  00000+0  00000-0 0  9994
2 68723  30.0000  33.1157 0000000   0.0000 314.9436 13.42494874    18
SXODC_L_00010032-41
1 68724U 25330DK  26070.40869213  .00000000  00000+0  00000-0 0  9997
2 68724  30.0000  33.1157 0000000   0.0000 322.9436 13.42494874    18
SXODC_L_00010032-42
1 68725U 22222OB  26070.40869213  .00000000  00000+0  00000-0 0  9995
2 68725  30.0000  33.1157 0000000   0.0000 330.9436 13.42494874    18
SXODC_L_00010032-43
1 68726U 23608QI  26070.40869213  .00000000  00000+0  00000-0 0  9995
2 68726  30.0000  33.1157 0000000   0.0000 338.9436 13.42494874    17
SXODC_L_00010032-44
1 68727U 26668AK  26070.40869213  .00000000  00000+0  00000-0 0  9995
2 68727  30.0000  33.1157 0000000   0.0000 346.9436 13.42494874    17
SXODC_L_00010032-45
1 68728U 25367HL  26070.40869213  .00000000  00000+0  00000-0 0  9991
2 68728  30.0000  33.1157 0000000   0.0000 354.9436 13.42494874    17
SXODC_L_00010033-01
1 68729U 25372LD  26070.40869213  .00000000  00000+0  00000-0 0  9998
2 68729  30.0000  34.1840 0000000   0.0000   3.0386 13.42494874    14
SXODC_L_00010033-02
1 68730U 23608BV  26070.40869213  .00000000  00000+0  00000-0 0  9990
2 68730  30.0000  34.1840 0000000   0.0000  11.0386 13.42494874    15
SXODC_L_00010033-03
1 68731U 25358YA  26070.40869213  .00000000  00000+0  00000-0 0  9995
2 68731  30.0000  34.1840 0000000   0.0000  19.0386 13.42494874    14
SXODC_L_00010033-04
1 68732U 22325CP  26070.40869213  .00000000  00000+0  00000-0 0  9997
2 68732  30.0000  34.1840 0000000   0.0000  27.0386 13.42494874    14
SXODC_L_00010033-05
1 68733U 22052TO  26070.40869213  .00000000  00000+0  00000-0 0  9995
2 68733  30.0000  34.1840 0000000   0.0000  35.0386 13.42494874    14
SXODC_L_00010033-06
1 68734U 22182UM  26070.40869213  .00000000  00000+0  00000-0 0  9990
2 68734  30.0000  34.1840 0000000   0.0000  43.0386 13.42494874    14
SXODC_L_00010033-07
1 68735U 24979IK  26070.40869213  .00000000  00000+0  00000-0 0  9997
2 68735  30.0000  34.1840 0000000   0.0000  51.0386 13.42494874    14
SXODC_L_00010033-08
1 68736U 26337OH  26070.40869213  .00000000  00000+0  00000-0 0  9998
2 68736  30.0000  34.1840 0000000   0.0000  59.0386 13.42494874    13
SXODC_L_00010033-09
1 68737U 22984BO  26070.40869213  .00000000  00000+0  00000-0 0  9993
2 68737  30.0000  34.1840 0000000   0.0000  67.0386 13.42494874    13
SXODC_L_00010033-10
1 68738U 26379CX  26070.40869213  .00000000  00000+0  00000-0 0  9996
2 68738  30.0000  34.1840 0000000   0.0000  75.0386 13.42494874    13
SXODC_L_00010033-11
1 68739U 23444DZ  26070.40869213  .00000000  00000+0  00000-0 0  9997
2 68739  30.0000  34.1840 0000000   0.0000  83.0386 13.42494874    13
SXODC_L_00010033-12
1 68740U 23380IP  26070.40869213  .00000000  00000+0  00000-0 0  9998
2 68740  30.0000  34.1840 0000000   0.0000  91.0386 13.42494874    14
SXODC_L_00010033-13
1 68741U 26768JB  26070.40869213  .00000000  00000+0  00000-0 0  9992
2 68741  30.0000  34.1840 0000000   0.0000  99.0386 13.42494874    13
SXODC_L_00010033-14
1 68742U 24073KB  26070.40869213  .00000000  00000+0  00000-0 0  9990
2 68742  30.0000  34.1840 0000000   0.0000 107.0386 13.42494874    14
SXODC_L_00010033-15
1 68743U 24327VE  26070.40869213  .00000000  00000+0  00000-0 0  9993
2 68743  30.0000  34.1840 0000000   0.0000 115.0386 13.42494874    14
SXODC_L_00010033-16
1 68744U 22594YC  26070.40869213  .00000000  00000+0  00000-0 0  9998
2 68744  30.0000  34.1840 0000000   0.0000 123.0386 13.42494874    14
SXODC_L_00010033-17
1 68745U 22896UK  26070.40869213  .00000000  00000+0  00000-0 0  9994
2 68745  30.0000  34.1840 0000000   0.0000 131.0386 13.42494874    14
SXODC_L_00010033-18
1 68746U 26001OY  26070.40869213  .00000000  00000+0  00000-0 0  9997
2 68746  30.0000  34.1840 0000000   0.0000 139.0386 13.42494874    13
SXODC_L_00010033-19
1 68747U 25856KZ  26070.40869213  .00000000  00000+0  00000-0 0  9995
2 68747  30.0000  34.1840 0000000   0.0000 147.0386 13.42494874    13
SXODC_L_00010033-20
1 68748U 25557BI  26070.40869213  .00000000  00000+0  00000-0 0  9994
2 68748  30.0000  34.1840 0000000   0.0000 155.0386 13.42494874    13
SXODC_L_00010033-21
1 68749U 26041DE  26070.40869213  .00000000  00000+0  00000-0 0  9994
2 68749  30.0000  34.1840 0000000   0.0000 163.0386 13.42494874    13
SXODC_L_00010033-22
1 68750U 26155DU  26070.40869213  .00000000  00000+0  00000-0 0  9992
2 68750  30.0000  34.1840 0000000   0.0000 171.0386 13.42494874    14
SXODC_L_00010033-23
1 68751U 22844TB  26070.40869213  .00000000  00000+0  00000-0 0  9994
2 68751  30.0000  34.1840 0000000   0.0000 179.0386 13.42494874    13
SXODC_L_00010033-24
1 68752U 26655ZK  26070.40869213  .00000000  00000+0  00000-0 0  9999
2 68752  30.0000  34.1840 0000000   0.0000 187.0386 13.42494874    13
SXODC_L_00010033-25
1 68753U 25581PB  26070.40869213  .00000000  00000+0  00000-0 0  9997
2 68753  30.0000  34.1840 0000000   0.0000 195.0386 13.42494874    13
SXODC_L_00010033-26
1 68754U 23967MR  26070.40869213  .00000000  00000+0  00000-0 0  9994
2 68754  30.0000  34.1840 0000000   0.0000 203.0386 13.42494874    14
SXODC_L_00010033-27
1 68755U 22023GR  26070.40869213  .00000000  00000+0  00000-0 0  9997
2 68755  30.0000  34.1840 0000000   0.0000 211.0386 13.42494874    14
SXODC_L_00010033-28
1 68756U 25871FD  26070.40869213  .00000000  00000+0  00000-0 0  9992
2 68756  30.0000  34.1840 0000000   0.0000 219.0386 13.42494874    13
SXODC_L_00010033-29
1 68757U 26618IU  26070.40869213  .00000000  00000+0  00000-0 0  9993
2 68757  30.0000  34.1840 0000000   0.0000 227.0386 13.42494874    13
SXODC_L_00010033-30
1 68758U 26472TA  26070.40869213  .00000000  00000+0  00000-0 0  9992
2 68758  30.0000  34.1840 0000000   0.0000 235.0386 13.42494874    13
SXODC_L_00010033-31
1 68759U 26428HR  26070.40869213  .00000000  00000+0  00000-0 0  9994
2 68759  30.0000  34.1840 0000000   0.0000 243.0386 13.42494874    13
SXODC_L_00010033-32
1 68760U 23265SE  26070.40869213  .00000000  00000+0  00000-0 0  9992
2 68760  30.0000  34.1840 0000000   0.0000 251.0386 13.42494874    14
SXODC_L_00010033-33
1 68761U 24433WN  26070.40869213  .00000000  00000+0  00000-0 0  9991
2 68761  30.0000  34.1840 0000000   0.0000 259.0386 13.42494874    13
SXODC_L_00010033-34
1 68762U 25893IS  26070.40869213  .00000000  00000+0  00000-0 0  9993
2 68762  30.0000  34.1840 0000000   0.0000 267.0386 13.42494874    13
SXODC_L_00010033-35
1 68763U 26712OS  26070.40869213  .00000000  00000+0  00000-0 0  9995
2 68763  30.0000  34.1840 0000000   0.0000 275.0386 13.42494874    13
SXODC_L_00010033-36
1 68764U 23603PV  26070.40869213  .00000000  00000+0  00000-0 0  9992
2 68764  30.0000  34.1840 0000000   0.0000 283.0386 13.42494874    13
SXODC_L_00010033-37
1 68765U 22217KS  26070.40869213  .00000000  00000+0  00000-0 0  9993
2 68765  30.0000  34.1840 0000000   0.0000 291.0386 13.42494874    13
SXODC_L_00010033-38
1 68766U 22036OC  26070.40869213  .00000000  00000+0  00000-0 0  9993
2 68766  30.0000  34.1840 0000000   0.0000 299.0386 13.42494874    12
SXODC_L_00010033-39
1 68767U 23033UI  26070.40869213  .00000000  00000+0  00000-0 0  9992
2 68767  30.0000  34.1840 0000000   0.0000 307.0386 13.42494874    13
SXODC_L_00010033-40
1 68768U 22005NS  26070.40869213  .00000000  00000+0  00000-0 0  9991
2 68768  30.0000  34.1840 0000000   0.0000 315.0386 13.42494874    13
SXODC_L_00010033-41
1 68769U 23344PF  26070.40869213  .00000000  00000+0  00000-0 0  9999
2 68769  30.0000  34.1840 0000000   0.0000 323.0386 13.42494874    13
SXODC_L_00010033-42
1 68770U 25982GE  26070.40869213  .00000000  00000+0  00000-0 0  9991
2 68770  30.0000  34.1840 0000000   0.0000 331.0386 13.42494874    14
SXODC_L_00010033-43
1 68771U 23376GE  26070.40869213  .00000000  00000+0  00000-0 0  9997
2 68771  30.0000  34.1840 0000000   0.0000 339.0386 13.42494874    13
SXODC_L_00010033-44
1 68772U 25042MT  26070.40869213  .00000000  00000+0  00000-0 0  9990
2 68772  30.0000  34.1840 0000000   0.0000 347.0386 13.42494874    13
SXODC_L_00010033-45
1 68773U 22224WB  26070.40869213  .00000000  00000+0  00000-0 0  9990
2 68773  30.0000  34.1840 0000000   0.0000 355.0386 13.42494874    13
SXODC_L_00010034-01
1 68774U 24322YL  26070.40869213  .00000000  00000+0  00000-0 0  9992
2 68774  30.0000  35.2522 0000000   0.0000   3.1335 13.42494874    18
SXODC_L_00010034-02
1 68775U 23693YX  26070.40869213  .00000000  00000+0  00000-0 0  9993
2 68775  30.0000  35.2522 0000000   0.0000  11.1335 13.42494874    18
SXODC_L_00010034-03
1 68776U 25347IQ  26070.40869213  .00000000  00000+0  00000-0 0  9992
2 68776  30.0000  35.2522 0000000   0.0000  19.1335 13.42494874    17
